satname,norad_id,inclination_deg,eccentricity,mean_motion_rev_per_day,perigee_km,apogee_km,l1,l2
STARLINK-1513,45786,53.0549,0.000132,15.06404204,546.2845290048526,548.1128176226075,1 45786U 20038BJ  26019.41931760  .00001581  00000+0  12501-3 0  9998,2 45786  53.0549  57.8025 0001320  88.9385 271.1755 15.06404204309334
STARLINK-1522,46027,53.0556,0.0001773,15.06410751,545.9507494103973,548.4064663249474,1 46027U 20055A   26019.59902294  .00001714  00000+0  13392-3 0  9992,2 46027  53.0556 346.9920 0001773  83.9824 276.1367 15.06410751301488
STARLINK-1523,46028,53.0563,0.0001425,15.06405452,546.2079886055099,548.1817081823019,1 46028U 20055B   26019.61376047 -.00000319  00000+0 -25429-5 0  9995,2 46028  53.0563 346.9300 0001425  91.1389 268.9764 15.06405452301505
STARLINK-1526,46029,53.0554,0.0001212,15.06389594,546.4040949024693,548.0828071237947,1 46029U 20055C   26019.60638994 -.00002812  00000+0 -16999-3 0  9997,2 46029  53.0554 346.9594 0001212  87.9202 272.1926 15.06389594301495
STARLINK-1555,46032,53.0543,0.0001479,15.0640397,546.1751332346303,548.223647738936,1 46032U 20055F   26019.59164769  .00002156  00000+0  16360-3 0  9994,2 46032  53.0543 347.0242 0001479  89.6729 270.4429 15.06403970301491
STARLINK-1556,46033,53.055,0.0001357,15.06400427,546.2704796233647,548.1500188668088,1 46033U 20055G   26019.63956813  .00006851  00000+0  47840-3 0  9992,2 46033  53.0550 346.8110 0001357  87.9483 272.1662 15.06400427301474
STARLINK-1557,46034,53.0561,0.000141,15.06402786,546.2265463199792,548.1794922054114,1 46034U 20055H   26019.17881904  .00000287  00000+0  38145-4 0  9996,2 46034  53.0561 348.8801 0001410  91.6595 268.4555 15.06402786301404
STARLINK-1558,46035,53.0547,0.000136,15.06409557,546.2404238442468,548.124110684942,1 46035U 20055J   26019.11984379  .00001777  00000+0  13812-3 0  9999,2 46035  53.0547 349.1454 0001360  97.1361 262.9783 15.06409557301420
STARLINK-1560,46036,53.0555,0.0002002,15.06405934,545.8069200023283,548.5798222829344,1 46036U 20055K   26019.63588027  .00002637  00000+0  19584-3 0  9995,2 46036  53.0555 346.8292 0002002  83.1618 276.9598 15.06405934301501
STARLINK-1567,46038,53.0554,0.0001416,15.06410324,546.1992916705321,548.1605414212981,1 46038U 20055M   26019.31519214  .00002316  00000+0  17428-3 0  9993,2 46038  53.0554 348.2676 0001416  89.0422 271.0730 15.06410324301446
STARLINK-1569,46039,53.0574,0.000138,15.06398469,546.2605514882152,548.1719489852794,1 46039U 20055N   26019.12353484  .00000358  00000+0  42899-4 0  9993,2 46039  53.0574 349.1287 0001380  95.9103 264.2043 15.06398469301412
STARLINK-1582,46043,53.0546,0.0001481,15.06414123,546.1426356045577,548.1939110265148,1 46043U 20055S   26019.59532740  .00001411  00000+0  11358-3 0  9999,2 46043  53.0546 347.0092 0001481  96.8286 263.2872 15.06414123301483
STARLINK-1591,46045,53.0559,0.0001565,15.06392102,546.1519434389083,548.3195851141263,1 46045U 20055U   26019.62114300  .00001000  00000+0  86015-4 0  9990,2 46045  53.0559 346.8945 0001565  87.5215 272.5953 15.06392102301479
STARLINK-1524,46047,53.0554,0.0001222,15.06403381,546.3549193521003,548.0474720071252,1 46047U 20055W   26019.57413935  .00005770  00000+0  40591-3 0  9998,2 46047  53.0554 337.1062 0001222  94.8626 265.2502 15.06403381301624
STARLINK-1527,46048,53.0552,0.0001448,15.06400643,546.2067970507569,548.2123774224192,1 46048U 20055X   26019.57044870  .00000757  00000+0  69727-4 0  9990,2 46048  53.0552 337.1182 0001448  86.0313 274.0842 15.06400643301603
STARLINK-1540,46051,53.0543,0.0001183,15.06398922,546.3955927297293,548.0341309802452,1 46051U 20055AA  26019.60363021  .00005778  00000+0  40645-3 0  9995,2 46051  53.0543 336.9723 0001183  98.0408 262.0716 15.06398922301646
STARLINK-1541,46052,53.0555,0.0001341,15.06405285,546.2666731523068,548.1240472913178,1 46052U 20055AB  26019.32349786  .00006530  00000+0  45678-3 0  9995,2 46052  53.0555 338.2311 0001341  95.0060 265.1082 15.06405285301567
STARLINK-1543,46053,53.0551,0.0001301,15.06396151,546.322365211905,548.1243439761711,1 46053U 20055AC  26019.59256512 -.00000069  00000+0  14283-4 0  9990,2 46053  53.0551 337.0226 0001301  92.3263 267.7875 15.06396151301634
STARLINK-1548,46054,53.0562,0.0001543,15.0639404,546.161240439078,548.2984086411316,1 46054U 20055AD  26019.59993739 -.00001398  00000+0 -75011-4 0  9993,2 46054  53.0562 336.9907 0001543  83.8858 276.2307 15.06394040301634
STARLINK-1554,46055,53.0549,0.000137,15.06411241,546.2283380739782,548.1258741390529,1 46055U 20055AE  26019.25346275  .00009856  00000+0  67945-3 0  9995,2 46055  53.0549 338.5453 0001370  93.8042 266.3103 15.06411241301589
STARLINK-1564,46058,53.0563,0.0001623,15.06392404,546.1108508326624,548.3588265314984,1 46058U 20055AH  26019.59632339  .00002792  00000+0  20628-3 0  9993,2 46058  53.0563 337.4696 0001623  86.1529 273.9645 15.06392404301620
STARLINK-1570,46059,53.0548,0.0001483,15.06402755,546.1760863339914,548.2301422118853,1 46059U 20055AJ  26019.29400057  .00000230  00000+0  34333-4 0  9995,2 46059  53.0548 338.3646 0001483  93.8271 266.2887 15.06402755301547
STARLINK-1572,46060,53.0557,0.0001616,15.0642996,546.0006148865341,548.238857863731,1 46060U 20055AK  26019.15760591 -.00012652  00000+0 -83130-3 0  9995,2 46060  53.0557 338.9758 0001616  79.7293 280.3879 15.06429960301538
STARLINK-1573,46061,53.0574,0.0001472,15.06414222,546.1485650079821,548.1873747911204,1 46061U 20055AL  26019.28663207  .00002018  00000+0  15426-3 0  9992,2 46061  53.0574 338.4334 0001472  97.0748 263.0408 15.06414222301587
STARLINK-1577,46063,53.0539,0.000125,15.06402521,546.338163843212,548.0694990510729,1 46063U 20055AN  26019.57781919  .00003931  00000+0  28261-3 0  9993,2 46063  53.0539 337.0891 0001250  89.4115 270.7017 15.06402521301625
STARLINK-1583,46064,53.0567,0.0001609,15.06391301,546.1239263759153,548.3525121214707,1 46064U 20055AP  26019.61100431  .00000635  00000+0  61563-4 0  9994,2 46064  53.0567 336.9383 0001609 105.0265 255.0903 15.06391301301634
STARLINK-1525,46066,53.0564,0.0001273,15.06408404,546.3042074158529,548.0673946009892,1 46066U 20055AR  26019.54280042  .00002062  00000+0  15728-3 0  9992,2 46066  53.0564 317.2462 0001273  85.8587 274.2547 15.06408404301890
STARLINK-1536,46070,53.0575,0.0001509,15.06397292,546.1748212308785,548.2648939304954,1 46070U 20055AV  26019.52070292 -.00002394  00000+0 -14185-3 0  9995,2 46070  53.0575 317.3483 0001509  98.6887 261.4273 15.06397292301906
